[{"OBJECT_NAME":"OBJECT M","OBJECT_ID":"2024-205M","EPOCH":"2026-03-09T22:23:47.520096","MEAN_MOTION":15.27663844,"ECCENTRICITY":0.00036602,"INCLINATION":97.3915,"RA_OF_ASC_NODE":144.193,"ARG_OF_PERICENTER":310.2554,"MEAN_ANOMALY":49.8364,"EPHEMERIS_TYPE":0,"CLASSIFICATION_TYPE":"U","NORAD_CAT_ID":61905,"ELEMENT_SET_NO":999,"REV_AT_EPOCH":7334,"BSTAR":0.00036391974,"MEAN_MOTION_DOT":9.771e-5,"MEAN_MOTION_DDOT":0},{"OBJECT_NAME":"STARLINK-32225","OBJECT_ID":"2024-216E","EPOCH":"2026-03-09T21:15:00.072864","MEAN_MOTION":15.27580712,"ECCENTRICITY":0.00016271,"INCLINATION":43.0003,"RA_OF_ASC_NODE":255.3849,"ARG_OF_PERICENTER":272.0542,"MEAN_ANOMALY":88.0123,"EPHEMERIS_TYPE":0,"CLASSIFICATION_TYPE":"U","NORAD_CAT_ID":62036,"ELEMENT_SET_NO":999,"REV_AT_EPOCH":7397,"BSTAR":0.0011592871,"MEAN_MOTION_DOT":0.00031777,"MEAN_MOTION_DDOT":0}]
